[{"OBJECT_NAME":"GEESAT-5 02","OBJECT_ID":"2025-201B","EPOCH":"2026-03-09T15:59:08.333088","MEAN_MOTION":14.83780369,"ECCENTRICITY":0.00086476,"INCLINATION":49.9848,"RA_OF_ASC_NODE":140.989,"ARG_OF_PERICENTER":301.1325,"MEAN_ANOMALY":58.8764,"EPHEMERIS_TYPE":0,"CLASSIFICATION_TYPE":"U","NORAD_CAT_ID":65551,"ELEMENT_SET_NO":999,"REV_AT_EPOCH":2701,"BSTAR":0.00035135822,"MEAN_MOTION_DOT":2.715e-5,"MEAN_MOTION_DDOT":0},{"OBJECT_NAME":"LEMUR-2-MARIO-SOUSA","OBJECT_ID":"2026-004C","EPOCH":"2026-03-09T22:28:14.080512","MEAN_MOTION":14.87588153,"ECCENTRICITY":0.00102095,"INCLINATION":97.8003,"RA_OF_ASC_NODE":69.0866,"ARG_OF_PERICENTER":105.1943,"MEAN_ANOMALY":255.0403,"EPHEMERIS_TYPE":0,"CLASSIFICATION_TYPE":"U","NORAD_CAT_ID":67365,"ELEMENT_SET_NO":999,"REV_AT_EPOCH":853,"BSTAR":0.00075901318,"MEAN_MOTION_DOT":6.852e-5,"MEAN_MOTION_DDOT":0}]
